[
  {
    "OBJECT_NAME": "STARLINK-34050",
    "OBJECT_ID": "25124Q",
    "EPOCH": "2025-11-11T07:10:19.788096",
    "MEAN_MOTION": 15.2761899,
    "ECCENTRICITY": 0.0001068,
    "INCLINATION": 43.0021,
    "RA_OF_ASC_NODE": 70.3587,
    "ARG_OF_PERICENTER": 286.2388,
    "MEAN_ANOMALY": 73.8346,
    "EPHEMERIS_TYPE": 0,
    "CLASSIFICATION_TYPE": "U",
    "NORAD_CAT_ID": 64331,
    "ELEMENT_SET_NO": 999,
    "REV_AT_EPOCH": 2473,
    "BSTAR": 0.0019664,
    "MEAN_MOTION_DOT": 0.00054312,
    "MEAN_MOTION_DDOT": 0.0,
    "TLE_LINE1": "1 64331U 25124Q   25315.29884014  .00054312  00000+0  19664-2 0  9995",
    "TLE_LINE2": "2 64331  43.0021  70.3587 0001068 286.2388  73.8346 15.27618990 24736",
    "COMMENT": "Grouped by shell and plane from TLE"
  },
  {
    "OBJECT_NAME": "STARLINK-33782",
    "OBJECT_ID": "25124R",
    "EPOCH": "2025-11-10T15:12:06.425280",
    "MEAN_MOTION": 15.27607737,
    "ECCENTRICITY": 0.0002155,
    "INCLINATION": 43.0012,
    "RA_OF_ASC_NODE": 73.9574,
    "ARG_OF_PERICENTER": 275.0679,
    "MEAN_ANOMALY": 84.9927,
    "EPHEMERIS_TYPE": 0,
    "CLASSIFICATION_TYPE": "U",
    "NORAD_CAT_ID": 64332,
    "ELEMENT_SET_NO": 999,
    "REV_AT_EPOCH": 2357,
    "BSTAR": 0.0019819,
    "MEAN_MOTION_DOT": 0.00054728,
    "MEAN_MOTION_DDOT": 0.0,
    "TLE_LINE1": "1 64332U 25124R   25314.63340770  .00054728  00000+0  19819-2 0  9992",
    "TLE_LINE2": "2 64332  43.0012  73.9574 0002155 275.0679  84.9927 15.27607737 23575",
    "COMMENT": "Grouped by shell and plane from TLE"
  },
  {
    "OBJECT_NAME": "STARLINK-34207",
    "OBJECT_ID": "25124S",
    "EPOCH": "2025-11-11T07:19:34.929696",
    "MEAN_MOTION": 15.27626393,
    "ECCENTRICITY": 5.97e-05,
    "INCLINATION": 43.0006,
    "RA_OF_ASC_NODE": 70.4077,
    "ARG_OF_PERICENTER": 36.9013,
    "MEAN_ANOMALY": 323.188,
    "EPHEMERIS_TYPE": 0,
    "CLASSIFICATION_TYPE": "U",
    "NORAD_CAT_ID": 64333,
    "ELEMENT_SET_NO": 999,
    "REV_AT_EPOCH": 2367,
    "BSTAR": 0.0021908,
    "MEAN_MOTION_DOT": 0.00060606,
    "MEAN_MOTION_DDOT": 0.0,
    "TLE_LINE1": "1 64333U 25124S   25315.30526539  .00060606  00000+0  21908-2 0  9991",
    "TLE_LINE2": "2 64333  43.0006  70.4077 0000597  36.9013 323.1880 15.27626393 23679",
    "COMMENT": "Grouped by shell and plane from TLE"
  },
  {
    "OBJECT_NAME": "STARLINK-34260",
    "OBJECT_ID": "25124T",
    "EPOCH": "2025-11-11T07:30:40.460256",
    "MEAN_MOTION": 15.27635083,
    "ECCENTRICITY": 0.0002324,
    "INCLINATION": 43.0038,
    "RA_OF_ASC_NODE": 70.4591,
    "ARG_OF_PERICENTER": 273.3805,
    "MEAN_ANOMALY": 86.6781,
    "EPHEMERIS_TYPE": 0,
    "CLASSIFICATION_TYPE": "U",
    "NORAD_CAT_ID": 64334,
    "ELEMENT_SET_NO": 999,
    "REV_AT_EPOCH": 2367,
    "BSTAR": 0.0013189999999999999,
    "MEAN_MOTION_DOT": 0.00036274,
    "MEAN_MOTION_DDOT": 0.0,
    "TLE_LINE1": "1 64334U 25124T   25315.31296829  .00036274  00000+0  13190-2 0  9997",
    "TLE_LINE2": "2 64334  43.0038  70.4591 0002324 273.3805  86.6781 15.27635083 23679",
    "COMMENT": "Grouped by shell and plane from TLE"
  },
  {
    "OBJECT_NAME": "STARLINK-33855",
    "OBJECT_ID": "25124U",
    "EPOCH": "2025-11-11T00:31:29.403840",
    "MEAN_MOTION": 15.27611257,
    "ECCENTRICITY": 9.21e-05,
    "INCLINATION": 42.9975,
    "RA_OF_ASC_NODE": 71.7079,
    "ARG_OF_PERICENTER": 268.7258,
    "MEAN_ANOMALY": 91.3488,
    "EPHEMERIS_TYPE": 0,
    "CLASSIFICATION_TYPE": "U",
    "NORAD_CAT_ID": 64335,
    "ELEMENT_SET_NO": 999,
    "REV_AT_EPOCH": 2363,
    "BSTAR": 0.0011189000000000001,
    "MEAN_MOTION_DOT": 0.00030684,
    "MEAN_MOTION_DDOT": 0.0,
    "TLE_LINE1": "1 64335U 25124U   25315.02186810  .00030684  00000+0  11189-2 0  9999",
    "TLE_LINE2": "2 64335  42.9975  71.7079 0000921 268.7258  91.3488 15.27611257 23634",
    "COMMENT": "Grouped by shell and plane from TLE"
  },
  {
    "OBJECT_NAME": "STARLINK-34216",
    "OBJECT_ID": "25124W",
    "EPOCH": "2025-11-10T14:46:12.194688",
    "MEAN_MOTION": 15.27621144,
    "ECCENTRICITY": 0.0001176,
    "INCLINATION": 42.999,
    "RA_OF_ASC_NODE": 73.8218,
    "ARG_OF_PERICENTER": 271.4176,
    "MEAN_ANOMALY": 88.6541,
    "EPHEMERIS_TYPE": 0,
    "CLASSIFICATION_TYPE": "U",
    "NORAD_CAT_ID": 64337,
    "ELEMENT_SET_NO": 999,
    "REV_AT_EPOCH": 2357,
    "BSTAR": 0.0012928,
    "MEAN_MOTION_DOT": 0.0003553,
    "MEAN_MOTION_DDOT": 0.0,
    "TLE_LINE1": "1 64337U 25124W   25314.61541892  .00035530  00000+0  12928-2 0  9997",
    "TLE_LINE2": "2 64337  42.9990  73.8218 0001176 271.4176  88.6541 15.27621144 23572",
    "COMMENT": "Grouped by shell and plane from TLE"
  },
  {
    "OBJECT_NAME": "STARLINK-34017",
    "OBJECT_ID": "25124Y",
    "EPOCH": "2025-11-11T07:04:46.259040",
    "MEAN_MOTION": 15.27587987,
    "ECCENTRICITY": 9.45e-05,
    "INCLINATION": 42.9991,
    "RA_OF_ASC_NODE": 70.3225,
    "ARG_OF_PERICENTER": 290.4558,
    "MEAN_ANOMALY": 69.6192,
    "EPHEMERIS_TYPE": 0,
    "CLASSIFICATION_TYPE": "U",
    "NORAD_CAT_ID": 64339,
    "ELEMENT_SET_NO": 999,
    "REV_AT_EPOCH": 2367,
    "BSTAR": 0.00045209,
    "MEAN_MOTION_DOT": 0.00012202,
    "MEAN_MOTION_DDOT": 0.0,
    "TLE_LINE1": "1 64339U 25124Y   25315.29497985  .00012202  00000+0  45209-3 0  9997",
    "TLE_LINE2": "2 64339  42.9991  70.3225 0000945 290.4558  69.6192 15.27587987 23671",
    "COMMENT": "Grouped by shell and plane from TLE"
  },
  {
    "OBJECT_NAME": "STARLINK-33965",
    "OBJECT_ID": "25147A",
    "EPOCH": "2025-11-10T15:07:34.694688",
    "MEAN_MOTION": 15.30194603,
    "ECCENTRICITY": 7.02e-05,
    "INCLINATION": 53.1637,
    "RA_OF_ASC_NODE": 75.7497,
    "ARG_OF_PERICENTER": 46.3645,
    "MEAN_ANOMALY": 313.7414,
    "EPHEMERIS_TYPE": 0,
    "CLASSIFICATION_TYPE": "U",
    "NORAD_CAT_ID": 64755,
    "ELEMENT_SET_NO": 999,
    "REV_AT_EPOCH": 2056,
    "BSTAR": 0.0015656,
    "MEAN_MOTION_DOT": 0.00046291,
    "MEAN_MOTION_DDOT": 0.0,
    "TLE_LINE1": "1 64755U 25147A   25314.63026267  .00046291  00000+0  15656-2 0  9999",
    "TLE_LINE2": "2 64755  53.1637  75.7497 0000702  46.3645 313.7414 15.30194603 20568",
    "COMMENT": "Grouped by shell and plane from TLE"
  },
  {
    "OBJECT_NAME": "STARLINK-34371",
    "OBJECT_ID": "25147B",
    "EPOCH": "2025-11-10T17:13:32.176992",
    "MEAN_MOTION": 15.30210982,
    "ECCENTRICITY": 1.57e-05,
    "INCLINATION": 53.1588,
    "RA_OF_ASC_NODE": 75.5744,
    "ARG_OF_PERICENTER": 102.364,
    "MEAN_ANOMALY": 257.7378,
    "EPHEMERIS_TYPE": 0,
    "CLASSIFICATION_TYPE": "U",
    "NORAD_CAT_ID": 64756,
    "ELEMENT_SET_NO": 999,
    "REV_AT_EPOCH": 2048,
    "BSTAR": 0.0011103,
    "MEAN_MOTION_DOT": 0.0003268,
    "MEAN_MOTION_DDOT": 0.0,
    "TLE_LINE1": "1 64756U 25147B   25314.71773353  .00032680  00000+0  11103-2 0  9994",
    "TLE_LINE2": "2 64756  53.1588  75.5744 0000157 102.3640 257.7378 15.30210982 20485",
    "COMMENT": "Grouped by shell and plane from TLE"
  },
  {
    "OBJECT_NAME": "STARLINK-34401",
    "OBJECT_ID": "25147C",
    "EPOCH": "2025-11-11T01:18:59.670720",
    "MEAN_MOTION": 15.30231788,
    "ECCENTRICITY": 3.35e-05,
    "INCLINATION": 53.1638,
    "RA_OF_ASC_NODE": 74.1242,
    "ARG_OF_PERICENTER": 253.2018,
    "MEAN_ANOMALY": 106.8946,
    "EPHEMERIS_TYPE": 0,
    "CLASSIFICATION_TYPE": "U",
    "NORAD_CAT_ID": 64757,
    "ELEMENT_SET_NO": 999,
    "REV_AT_EPOCH": 2051,
    "BSTAR": 0.0011614,
    "MEAN_MOTION_DOT": 0.0003423,
    "MEAN_MOTION_DDOT": 0.0,
    "TLE_LINE1": "1 64757U 25147C   25315.05485730  .00034230  00000+0  11614-2 0  9992",
    "TLE_LINE2": "2 64757  53.1638  74.1242 0000335 253.2018 106.8946 15.30231788 20519",
    "COMMENT": "Grouped by shell and plane from TLE"
  },
  {
    "OBJECT_NAME": "STARLINK-34593",
    "OBJECT_ID": "25147D",
    "EPOCH": "2025-11-10T18:14:09.604032",
    "MEAN_MOTION": 15.30222777,
    "ECCENTRICITY": 9.2e-05,
    "INCLINATION": 53.1597,
    "RA_OF_ASC_NODE": 75.1303,
    "ARG_OF_PERICENTER": 32.3828,
    "MEAN_ANOMALY": 327.7229,
    "EPHEMERIS_TYPE": 0,
    "CLASSIFICATION_TYPE": "U",
    "NORAD_CAT_ID": 64758,
    "ELEMENT_SET_NO": 999,
    "REV_AT_EPOCH": 2054,
    "BSTAR": 0.0024385,
    "MEAN_MOTION_DOT": 0.0007262,
    "MEAN_MOTION_DDOT": 0.0,
    "TLE_LINE1": "1 64758U 25147D   25314.75983338  .00072620  00000+0  24385-2 0  9990",
    "TLE_LINE2": "2 64758  53.1597  75.1303 0000920  32.3828 327.7229 15.30222777 20547",
    "COMMENT": "Grouped by shell and plane from TLE"
  },
  {
    "OBJECT_NAME": "STARLINK-34598",
    "OBJECT_ID": "25147E",
    "EPOCH": "2025-11-10T14:47:49.309152",
    "MEAN_MOTION": 15.30197328,
    "ECCENTRICITY": 0.0001166,
    "INCLINATION": 53.1585,
    "RA_OF_ASC_NODE": 75.6548,
    "ARG_OF_PERICENTER": 71.1436,
    "MEAN_ANOMALY": 288.9691,
    "EPHEMERIS_TYPE": 0,
    "CLASSIFICATION_TYPE": "U",
    "NORAD_CAT_ID": 64759,
    "ELEMENT_SET_NO": 999,
    "REV_AT_EPOCH": 2047,
    "BSTAR": 0.0015270000000000001,
    "MEAN_MOTION_DOT": 0.00045137,
    "MEAN_MOTION_DDOT": 0.0,
    "TLE_LINE1": "1 64759U 25147E   25314.61654293  .00045137  00000+0  15270-2 0  9997",
    "TLE_LINE2": "2 64759  53.1585  75.6548 0001166  71.1436 288.9691 15.30197328 20476",
    "COMMENT": "Grouped by shell and plane from TLE"
  },
  {
    "OBJECT_NAME": "STARLINK-34235",
    "OBJECT_ID": "25147F",
    "EPOCH": "2025-11-10T15:12:08.160192",
    "MEAN_MOTION": 15.3019589,
    "ECCENTRICITY": 7.73e-05,
    "INCLINATION": 53.1616,
    "RA_OF_ASC_NODE": 75.7665,
    "ARG_OF_PERICENTER": 41.129,
    "MEAN_ANOMALY": 318.9769,
    "EPHEMERIS_TYPE": 0,
    "CLASSIFICATION_TYPE": "U",
    "NORAD_CAT_ID": 64760,
    "ELEMENT_SET_NO": 999,
    "REV_AT_EPOCH": 2056,
    "BSTAR": 0.0021077,
    "MEAN_MOTION_DOT": 0.00062582,
    "MEAN_MOTION_DDOT": 0.0,
    "TLE_LINE1": "1 64760U 25147F   25314.63342778  .00062582  00000+0  21077-2 0  9998",
    "TLE_LINE2": "2 64760  53.1616  75.7665 0000773  41.1290 318.9769 15.30195890 20564",
    "COMMENT": "Grouped by shell and plane from TLE"
  }
]